{
"type": "FeatureCollection",
"name": "changed_blocks",
"crs": { "type": "name", "properties": { "name": "urn:ogc:def:crs:OGC:1.3:CRS84" } },
"features": [
{ "type": "Feature", "properties": { "GEOID": "361190009001012", "ad_old": "092", "ad_new": "090", "type": "between districts", "P1_Total(001)": 85 }, "geometry": { "type": "Polygon", "coordinates": [ [ [ -73.866608999947545, 40.97882699991176 ], [ -73.866665999848962, 40.977495000139648 ], [ -73.866015999570635, 40.977454999974874 ], [ -73.865935000278071, 40.978866000278806 ], [ -73.866249999922346, 40.978847999903593 ], [ -73.866608999947545, 40.97882699991176 ] ] ] } },
{ "type": "Feature", "properties": { "GEOID": "361190009001013", "ad_old": "092", "ad_new": "090", "type": "between districts", "P1_Total(001)": 0 }, "geometry": { "type": "Polygon", "coordinates": [ [ [ -73.871261000206545, 40.966816000177879 ], [ -73.871242999764874, 40.96647800028645 ], [ -73.871137000357976, 40.966479000118099 ], [ -73.871176999642628, 40.966960000139522 ], [ -73.871120999566116, 40.967632999915679 ], [ -73.871103999847705, 40.967719999969297 ], [ -73.871006999763324, 40.968167000260458 ], [ -73.870922000272813, 40.968431999886562 ], [ -73.870776999609546, 40.968783999812288 ], [ -73.870526000437692, 40.969262999731818 ], [ -73.870334999743676, 40.969580999842258 ], [ -73.870253999552816, 40.969712999770735 ], [ -73.870308999804408, 40.969727000117615 ], [ -73.870354000010238, 40.969742000243777 ], [ -73.870427999630095, 40.969624000063796 ], [ -73.870569999920306, 40.969392000255702 ], [ -73.870703999814609, 40.969148000103701 ], [ -73.870822999640311, 40.968915999978599 ], [ -73.87093099959533, 40.968663999678569 ], [ -73.871019000357194, 40.968431999886562 ], [ -73.871037999725459, 40.968392000331136 ], [ -73.87113399998492, 40.968030000233583 ], [ -73.871200000107166, 40.967713999735402 ], [ -73.871241999939954, 40.967410000283571 ], [ -73.871261000206545, 40.966816000177879 ] ] ] } },
{ "type": "Feature", "properties": { "GEOID": "361190131022028", "ad_old": "092", "ad_new": null, "type": "left study area", "P1_Total(001)": 3 }, "geometry": { "type": "Polygon", "coordinates": [ [ [ -73.775052999939177, 41.152060999688217 ], [ -73.775057999962058, 41.151887999846004 ], [ -73.775047000091405, 41.151664000001652 ], [ -73.774972999573237, 41.151574999956686 ], [ -73.774929000090623, 41.151529000296499 ], [ -73.774612999723132, 41.151274000095043 ], [ -73.774519999836713, 41.151306000310015 ], [ -73.774406999858812, 41.151337999832997 ], [ -73.77432300019322, 41.151327999814647 ], [ -73.774257000070975, 41.151304999901917 ], [ -73.773903000068657, 41.151183999787122 ], [ -73.773811999832049, 41.150963999867137 ], [ -73.773667999892012, 41.150994999820583 ], [ -73.773508000058442, 41.151002000004439 ], [ -73.77345899965465, 41.151004000153449 ], [ -73.773673999739799, 41.151457999934216 ], [ -73.774053999681385, 41.151387000171411 ], [ -73.774124999826498, 41.152390000142034 ], [ -73.774580000111158, 41.152345999808951 ], [ -73.774934000113504, 41.152576000332097 ], [ -73.775011000106389, 41.152354000240663 ], [ -73.775052999939177, 41.152060999688217 ] ] ] } },
{ "type": "Feature", "properties": { "GEOID": "361190131022027", "ad_old": "092", "ad_new": null, "type": "left study area", "P1_Total(001)": 0 }, "geometry": { "type": "Polygon", "coordinates": [ [ [ -73.774893000105621, 41.152694000099068 ], [ -73.774934000113504, 41.152576000332097 ], [ -73.774580000111158, 41.152345999808951 ], [ -73.774124999826498, 41.152390000142034 ], [ -73.774175999880129, 41.153098999976635 ], [ -73.774669999624535, 41.153083999675076 ], [ -73.774755999838248, 41.152947999805413 ], [ -73.774893000105621, 41.152694000099068 ] ] ] } },
{ "type": "Feature", "properties": { "GEOID": "361190024034008", "ad_old": "089", "ad_new": "090", "type": "between districts", "P1_Total(001)": 154 }, "geometry": { "type": "Polygon", "coordinates": [ [ [ -73.853407999929246, 40.915814999844038 ], [ -73.853142999615372, 40.915727999953859 ], [ -73.852844999689538, 40.915613000071623 ], [ -73.852623999756617, 40.915512000293326 ], [ -73.851807999796918, 40.91510800031606 ], [ -73.851541999658124, 40.915003999969386 ], [ -73.851330999770937, 40.915268999831646 ], [ -73.851253999778052, 40.915358000179857 ], [ -73.851150000020965, 40.915452999961637 ], [ -73.851053999761504, 40.915523000142272 ], [ -73.851068999830119, 40.915724000268284 ], [ -73.853080999691102, 40.916393999894922 ], [ -73.853407999929246, 40.915814999844038 ] ] ] } },
{ "type": "Feature", "properties": { "GEOID": "361190107013009", "ad_old": "092", "ad_new": null, "type": "left study area", "P1_Total(001)": 0 }, "geometry": { "type": "Polygon", "coordinates": [ [ [ -73.829358000410551, 41.009858000321273 ], [ -73.829684999750384, 41.009730000164765 ], [ -73.829257999953114, 41.009092000124838 ], [ -73.829273000021729, 41.009216000040418 ], [ -73.82933999996888, 41.009669000235775 ], [ -73.829358000410551, 41.009858000321273 ] ] ] } },
{ "type": "Feature", "properties": { "GEOID": "361190009001009", "ad_old": "092", "ad_new": "090", "type": "between districts", "P1_Total(001)": 0 }, "geometry": { "type": "Polygon", "coordinates": [ [ [ -73.870354000010238, 40.969742000243777 ], [ -73.870308999804408, 40.969727000117615 ], [ -73.870253999552816, 40.969712999770735 ], [ -73.869363999973288, 40.971088999702616 ], [ -73.869018000366879, 40.971713999793479 ], [ -73.868828000396078, 40.972076000027279 ], [ -73.868686000105853, 40.972413999730271 ], [ -73.868604000090087, 40.97265099981167 ], [ -73.86851799987636, 40.972919000300315 ], [ -73.868465000172904, 40.973168999810099 ], [ -73.86843800040873, 40.973341999719324 ], [ -73.868408000271515, 40.973827000139444 ], [ -73.86842599981486, 40.974282999886213 ], [ -73.868554999686296, 40.974292999732299 ], [ -73.868532999944975, 40.973982000011326 ], [ -73.868537000142936, 40.973554999694038 ], [ -73.868588000196567, 40.973140999895861 ], [ -73.868631999679181, 40.972919000300315 ], [ -73.868743999832162, 40.972580000054016 ], [ -73.868869000403961, 40.972257999821664 ], [ -73.869031999712263, 40.971900000262892 ], [ -73.869391999562382, 40.971251000253339 ], [ -73.870201999674293, 40.969978999749266 ], [ -73.870354000010238, 40.969742000243777 ] ] ] } },
{ "type": "Feature", "properties": { "GEOID": "361190007022001", "ad_old": "090", "ad_new": "092", "type": "between districts", "P1_Total(001)": 0 }, "geometry": { "type": "Polygon", "coordinates": [ [ [ -73.896963999561009, 40.956643999943147 ], [ -73.897054999797604, 40.95657199994077 ], [ -73.896935999971916, 40.956550000338929 ], [ -73.896727999559459, 40.956499999859815 ], [ -73.896525000068166, 40.956825000261858 ], [ -73.896146999776406, 40.957428999754278 ], [ -73.895890999683374, 40.957807999712756 ], [ -73.89551599976464, 40.958285000018662 ], [ -73.895155999914536, 40.958695000290277 ], [ -73.894724999919305, 40.959208000241709 ], [ -73.894078000014034, 40.960029000268861 ], [ -73.893137000380861, 40.961157999732144 ], [ -73.892574000141167, 40.961930999967471 ], [ -73.89209399974213, 40.962680999807311 ], [ -73.891880000380198, 40.963074999741828 ], [ -73.891675000340797, 40.963515999678144 ], [ -73.891393000308483, 40.964289999972657 ], [ -73.891136000390546, 40.965233999910879 ], [ -73.891064000420513, 40.965746000069686 ], [ -73.890924999605033, 40.966284999935162 ], [ -73.890792000433947, 40.966921000195065 ], [ -73.89067899955775, 40.967588000123612 ], [ -73.890039000223467, 40.970477999983196 ], [ -73.889928999720283, 40.970858999828458 ], [ -73.889843000404866, 40.9711059997205 ], [ -73.890159999698952, 40.971186000264396 ], [ -73.890523999747032, 40.969246999707075 ], [ -73.890958000115305, 40.966844999889219 ], [ -73.891009000168935, 40.966519999985849 ], [ -73.891414000224884, 40.964855999714189 ], [ -73.89149700006557, 40.964577999752606 ], [ -73.891772000425178, 40.963919000245589 ], [ -73.892210000093101, 40.963008000070445 ], [ -73.89228600026108, 40.962916999689028 ], [ -73.892333000116736, 40.962891999830624 ], [ -73.892694999616666, 40.962949999976018 ], [ -73.89280400029493, 40.96295500007971 ], [ -73.892832999708929, 40.962943000101497 ], [ -73.892923000120618, 40.962840000311878 ], [ -73.892940999663978, 40.962793000189826 ], [ -73.892887000135602, 40.962685999931438 ], [ -73.892898000006269, 40.962628000232399 ], [ -73.892985000044902, 40.962561000107222 ], [ -73.893000999938423, 40.962519999814837 ], [ -73.893002999588248, 40.962462999862403 ], [ -73.892979000197116, 40.962405999860749 ], [ -73.892730999601682, 40.962251999824289 ], [ -73.892675000423495, 40.962173999774429 ], [ -73.892667999852492, 40.962141999675147 ], [ -73.892692000141935, 40.962009000304519 ], [ -73.892780000005473, 40.961874000184714 ], [ -73.893554999957303, 40.960904999737771 ], [ -73.894355000023467, 40.959942000251438 ], [ -73.895201999945286, 40.959006000156158 ], [ -73.89668200042702, 40.957085000109828 ], [ -73.896963999561009, 40.956643999943147 ] ] ] } },
{ "type": "Feature", "properties": { "GEOID": "361190024034009", "ad_old": "089", "ad_new": "090", "type": "between districts", "P1_Total(001)": 101 }, "geometry": { "type": "Polygon", "coordinates": [ [ [ -73.852916999659556, 40.915019000310132 ], [ -73.852976000109109, 40.914897000336161 ], [ -73.852540999915931, 40.914673999757348 ], [ -73.852407000021628, 40.914615000035433 ], [ -73.852352999594956, 40.914593000033605 ], [ -73.851600000282772, 40.914935999784788 ], [ -73.851541999658124, 40.915003999969386 ], [ -73.851807999796918, 40.91510800031606 ], [ -73.852623999756617, 40.915512000293326 ], [ -73.852916999659556, 40.915019000310132 ] ] ] } },
{ "type": "Feature", "properties": { "GEOID": "361190009003002", "ad_old": "092", "ad_new": "090", "type": "between districts", "P1_Total(001)": 50 }, "geometry": { "type": "Polygon", "coordinates": [ [ [ -73.86804699969818, 40.978782999939533 ], [ -73.867906000131171, 40.978765000219859 ], [ -73.867469000288168, 40.978780000325692 ], [ -73.867301999883594, 40.978788999845001 ], [ -73.866967000147838, 40.978805999913284 ], [ -73.866782000199905, 40.979875999822127 ], [ -73.866777000177038, 40.979908000137705 ], [ -73.866731000146288, 40.980189000165396 ], [ -73.866728999598152, 40.980202000021869 ], [ -73.866978000018491, 40.980164999693336 ], [ -73.867279000317382, 40.980120999935465 ], [ -73.867599999809428, 40.980075000218832 ], [ -73.867677999627233, 40.97985199991431 ], [ -73.86804699969818, 40.978782999939533 ] ] ] } },
{ "type": "Feature", "properties": { "GEOID": "361190009001015", "ad_old": "092", "ad_new": "090", "type": "between districts", "P1_Total(001)": 69 }, "geometry": { "type": "Polygon", "coordinates": [ [ [ -73.867482999633552, 40.976267999983769 ], [ -73.867417000409631, 40.976265999938903 ], [ -73.867297999685633, 40.976261999848994 ], [ -73.866722999750365, 40.976197999733877 ], [ -73.866680000092657, 40.977010000236078 ], [ -73.866665999848962, 40.977495000139648 ], [ -73.867366000356, 40.977535999944202 ], [ -73.867482999633552, 40.976267999983769 ] ] ] } },
{ "type": "Feature", "properties": { "GEOID": "361190008022001", "ad_old": "092", "ad_new": "090", "type": "between districts", "P1_Total(001)": 298 }, "geometry": { "type": "Polygon", "coordinates": [ [ [ -73.876413999882629, 40.965483000203442 ], [ -73.876298000429969, 40.96492499993316 ], [ -73.876325000194157, 40.963848999781646 ], [ -73.875996000306188, 40.963628000000284 ], [ -73.875735000190275, 40.963540999978541 ], [ -73.875524000303088, 40.963504999678641 ], [ -73.87537399961694, 40.96349000016972 ], [ -73.875093000307857, 40.96346300009543 ], [ -73.87475799967379, 40.963374999977461 ], [ -73.874689999901719, 40.963343999661284 ], [ -73.874595000365488, 40.963266000223648 ], [ -73.874505999778705, 40.963160999817617 ], [ -73.874467000318973, 40.963088000257379 ], [ -73.874431000333956, 40.963868999921772 ], [ -73.874416000265356, 40.964905999968543 ], [ -73.873494000000449, 40.964746999693112 ], [ -73.873473999908967, 40.964725999960883 ], [ -73.873473999908967, 40.964697999855254 ], [ -73.873471000434222, 40.963841000130877 ], [ -73.87351400009193, 40.962782000069808 ], [ -73.873431000251259, 40.962829000199747 ], [ -73.873115999708673, 40.963038999866079 ], [ -73.873031000218177, 40.963083000163749 ], [ -73.872631000185095, 40.963153000083508 ], [ -73.872541999598312, 40.963189999778486 ], [ -73.872453999734773, 40.963240999819135 ], [ -73.872431000168547, 40.963852999945814 ], [ -73.872431000168547, 40.964619000123157 ], [ -73.87244100021428, 40.965340000259239 ], [ -73.872435000366508, 40.965613999666878 ], [ -73.872425000320774, 40.965698000138794 ], [ -73.872411000077065, 40.965820999764681 ], [ -73.872356999650378, 40.966077000098466 ], [ -73.87229899992407, 40.966474000281401 ], [ -73.87246100030579, 40.96648399995442 ], [ -73.872575000108597, 40.96651199998059 ], [ -73.873031000218177, 40.966692999693294 ], [ -73.873191999876639, 40.966739999751091 ], [ -73.873411000159763, 40.966761000199078 ], [ -73.873485999604526, 40.966754000050514 ], [ -73.87362600024494, 40.966714999984305 ], [ -73.873729000177093, 40.966666000251067 ], [ -73.874089000027197, 40.966463999928479 ], [ -73.874782999788152, 40.966085999994121 ], [ -73.874997000048396, 40.965981999844075 ], [ -73.875075999691106, 40.965952999753476 ], [ -73.875448000135094, 40.965814000194719 ], [ -73.875823000053828, 40.965677999874636 ], [ -73.876413999882629, 40.965483000203442 ] ] ] } },
{ "type": "Feature", "properties": { "GEOID": "361190008022006", "ad_old": "092", "ad_new": "090", "type": "between districts", "P1_Total(001)": 196 }, "geometry": { "type": "Polygon", "coordinates": [ [ [ -73.877567999951125, 40.96058799979712 ], [ -73.877638000271304, 40.960336000256028 ], [ -73.876649999884165, 40.960051000067914 ], [ -73.876941000137307, 40.959463999770954 ], [ -73.877289000291867, 40.958719999703241 ], [ -73.877135000306055, 40.958674999938992 ], [ -73.877063000336037, 40.958654000309863 ], [ -73.87696500042675, 40.958621999860718 ], [ -73.876876999664901, 40.958576000078295 ], [ -73.876820999588389, 40.958519000111707 ], [ -73.876727999701984, 40.958390999995437 ], [ -73.876613000074244, 40.95816000000017 ], [ -73.876276999615271, 40.9588349998659 ], [ -73.875978999689437, 40.95941999977412 ], [ -73.875562999762835, 40.96036099972585 ], [ -73.8752499997684, 40.96090600033223 ], [ -73.876132999675221, 40.961149999755186 ], [ -73.877326999926694, 40.961447000198781 ], [ -73.877567999951125, 40.96058799979712 ] ] ] } },
{ "type": "Feature", "properties": { "GEOID": "361190008022007", "ad_old": "092", "ad_new": "090", "type": "between districts", "P1_Total(001)": 80 }, "geometry": { "type": "Polygon", "coordinates": [ [ [ -73.877911999907695, 40.959304000011954 ], [ -73.877991000448731, 40.958909000006237 ], [ -73.877289000291867, 40.958719999703241 ], [ -73.876941000137307, 40.959463999770954 ], [ -73.876649999884165, 40.960051000067914 ], [ -73.877638000271304, 40.960336000256028 ], [ -73.87778300003626, 40.959826000049908 ], [ -73.877866999701851, 40.959528999774228 ], [ -73.877911999907695, 40.959304000011954 ] ] ] } },
{ "type": "Feature", "properties": { "GEOID": "361190008022003", "ad_old": "092", "ad_new": "090", "type": "between districts", "P1_Total(001)": 35 }, "geometry": { "type": "Polygon", "coordinates": [ [ [ -73.87463300000033, 40.961551000033616 ], [ -73.874633999825235, 40.961530999869353 ], [ -73.874610000434117, 40.961473999741145 ], [ -73.87457000025114, 40.96143599985443 ], [ -73.874460999572875, 40.961382000049213 ], [ -73.873955999957801, 40.961239999948525 ], [ -73.873870999568993, 40.961236000304353 ], [ -73.873788999553227, 40.961253000147202 ], [ -73.87373500002488, 40.961286999819826 ], [ -73.873683999971249, 40.961347999747147 ], [ -73.87359299973464, 40.961555000337071 ], [ -73.873518000289891, 40.961847000127619 ], [ -73.873510999718874, 40.961935000247941 ], [ -73.87351400009193, 40.962782000069808 ], [ -73.873695999666808, 40.962679999918123 ], [ -73.873909000102145, 40.96261899986515 ], [ -73.874068000110796, 40.962621000323722 ], [ -73.874136999707773, 40.962629000122369 ], [ -73.874211000225941, 40.962655999859557 ], [ -73.874344000295324, 40.962758000048332 ], [ -73.874377999732189, 40.962808999744404 ], [ -73.874467000318973, 40.963088000257379 ], [ -73.874480999664357, 40.962158000065912 ], [ -73.874492000433335, 40.961991999978018 ], [ -73.874511999626492, 40.961917999902333 ], [ -73.874623999779502, 40.961659999906381 ], [ -73.87463300000033, 40.961551000033616 ] ] ] } },
{ "type": "Feature", "properties": { "GEOID": "361190019001019", "ad_old": "092", "ad_new": "090", "type": "between districts", "P1_Total(001)": 0 }, "geometry": { "type": "Polygon", "coordinates": [ [ [ -73.87154300023883, 40.966476999776468 ], [ -73.871453999652061, 40.966094000051022 ], [ -73.871329999803507, 40.965720000083188 ], [ -73.871320999582679, 40.965699999825695 ], [ -73.871232999719112, 40.965498999784209 ], [ -73.871097000174998, 40.965251000080613 ], [ -73.870983000372178, 40.965041999844679 ], [ -73.871042999748326, 40.965741000177445 ], [ -73.871137000357976, 40.966479000118099 ], [ -73.871242999764874, 40.96647800028645 ], [ -73.871407999621312, 40.96647800028645 ], [ -73.87154300023883, 40.966476999776468 ] ] ] } },
{ "type": "Feature", "properties": { "GEOID": "361190008015005", "ad_old": "092", "ad_new": "090", "type": "between districts", "P1_Total(001)": 93 }, "geometry": { "type": "Polygon", "coordinates": [ [ [ -73.880215000021806, 40.96088799980528 ], [ -73.880501000252082, 40.960293000087468 ], [ -73.879475000230102, 40.959965999940195 ], [ -73.879336000312932, 40.959929999725404 ], [ -73.879234000205685, 40.959929999725404 ], [ -73.8791720002814, 40.959965999940195 ], [ -73.879059000303485, 40.960200000179341 ], [ -73.879008000249868, 40.960204999813001 ], [ -73.87778300003626, 40.959826000049908 ], [ -73.877638000271304, 40.960336000256028 ], [ -73.877567999951125, 40.96058799979712 ], [ -73.878080000137203, 40.960734000297009 ], [ -73.878286000001509, 40.960763999885828 ], [ -73.878373000040156, 40.960759000294466 ], [ -73.87852700002594, 40.960734000297009 ], [ -73.878645000026694, 40.960738999890253 ], [ -73.879147999991957, 40.960882000306889 ], [ -73.879358999879145, 40.960958999933261 ], [ -73.879425000001405, 40.961011000255631 ], [ -73.87948699992566, 40.961148999842806 ], [ -73.879527999933558, 40.961175000273464 ], [ -73.880015999830178, 40.961300000009246 ], [ -73.880215000021806, 40.96088799980528 ] ] ] } },
{ "type": "Feature", "properties": { "GEOID": "361190131022029", "ad_old": "092", "ad_new": null, "type": "left study area", "P1_Total(001)": 0 }, "geometry": { "type": "Polygon", "coordinates": [ [ [ -73.774124999826498, 41.152390000142034 ], [ -73.774053999681385, 41.151387000171411 ], [ -73.773673999739799, 41.151457999934216 ], [ -73.77345899965465, 41.151004000153449 ], [ -73.773214000330569, 41.151012000072512 ], [ -73.773396999730352, 41.151387999901843 ], [ -73.773569000157806, 41.151733000014133 ], [ -73.773725999618321, 41.152083000292286 ], [ -73.773788000440931, 41.152216999815231 ], [ -73.773884999626986, 41.152414000065278 ], [ -73.77391399993931, 41.15241100024447 ], [ -73.774124999826498, 41.152390000142034 ] ] ] } },
{ "type": "Feature", "properties": { "GEOID": "361190131022025", "ad_old": "092", "ad_new": null, "type": "left study area", "P1_Total(001)": 0 }, "geometry": { "type": "Polygon", "coordinates": [ [ [ -73.774175999880129, 41.153098999976635 ], [ -73.774124999826498, 41.152390000142034 ], [ -73.77391399993931, 41.15241100024447 ], [ -73.773884999626986, 41.152414000065278 ], [ -73.774082999993709, 41.152792999774107 ], [ -73.774175999880129, 41.153098999976635 ] ] ] } },
{ "type": "Feature", "properties": { "GEOID": "361190009001011", "ad_old": "092", "ad_new": "090", "type": "between districts", "P1_Total(001)": 54 }, "geometry": { "type": "Polygon", "coordinates": [ [ [ -73.867301999883594, 40.978788999845001 ], [ -73.867366000356, 40.977535999944202 ], [ -73.866665999848962, 40.977495000139648 ], [ -73.866608999947545, 40.97882699991176 ], [ -73.866967000147838, 40.978805999913284 ], [ -73.867301999883594, 40.978788999845001 ] ] ] } },
{ "type": "Feature", "properties": { "GEOID": "361190009003013", "ad_old": "092", "ad_new": "090", "type": "between districts", "P1_Total(001)": 43 }, "geometry": { "type": "Polygon", "coordinates": [ [ [ -73.866782000199905, 40.979875999822127 ], [ -73.866967000147838, 40.978805999913284 ], [ -73.866608999947545, 40.97882699991176 ], [ -73.866249999922346, 40.978847999903593 ], [ -73.866056999578504, 40.979837999681521 ], [ -73.866777000177038, 40.979908000137705 ], [ -73.866782000199905, 40.979875999822127 ] ] ] } },
{ "type": "Feature", "properties": { "GEOID": "361190007022002", "ad_old": "090", "ad_new": "092", "type": "between districts", "P1_Total(001)": 541 }, "geometry": { "type": "Polygon", "coordinates": [ [ [ -73.896525000068166, 40.956825000261858 ], [ -73.896727999559459, 40.956499999859815 ], [ -73.895140999845907, 40.956146000241915 ], [ -73.893673999782976, 40.959055000149775 ], [ -73.893406999819277, 40.959535000073998 ], [ -73.892852999800425, 40.960183000065228 ], [ -73.892451999942423, 40.960639999733409 ], [ -73.891389000110522, 40.961896000047226 ], [ -73.890814000175254, 40.9627119997566 ], [ -73.890706000220234, 40.962934999662608 ], [ -73.890665000212337, 40.963072999975317 ], [ -73.890619000181587, 40.963354999687631 ], [ -73.890603000288067, 40.963571000326482 ], [ -73.890613000333801, 40.963780999666817 ], [ -73.890588000219452, 40.963962999956543 ], [ -73.890557000257317, 40.964096000137815 ], [ -73.890295000316499, 40.964821999845185 ], [ -73.890157000224235, 40.966189000144183 ], [ -73.890054000292068, 40.967125000119076 ], [ -73.890008000261332, 40.96763699985047 ], [ -73.889818000290518, 40.969389000214839 ], [ -73.889777000282635, 40.969577999809985 ], [ -73.889707999787333, 40.969746000050741 ], [ -73.889675000175387, 40.970081999927203 ], [ -73.889500000273202, 40.971019000061702 ], [ -73.889843000404866, 40.9711059997205 ], [ -73.889928999720283, 40.970858999828458 ], [ -73.890039000223467, 40.970477999983196 ], [ -73.89067899955775, 40.967588000123612 ], [ -73.890792000433947, 40.966921000195065 ], [ -73.890924999605033, 40.966284999935162 ], [ -73.891064000420513, 40.965746000069686 ], [ -73.891136000390546, 40.965233999910879 ], [ -73.891393000308483, 40.964289999972657 ], [ -73.891675000340797, 40.963515999678144 ], [ -73.891880000380198, 40.963074999741828 ], [ -73.89209399974213, 40.962680999807311 ], [ -73.892574000141167, 40.961930999967471 ], [ -73.893137000380861, 40.961157999732144 ], [ -73.894078000014034, 40.960029000268861 ], [ -73.894724999919305, 40.959208000241709 ], [ -73.895155999914536, 40.958695000290277 ], [ -73.89551599976464, 40.958285000018662 ], [ -73.895890999683374, 40.957807999712756 ], [ -73.896146999776406, 40.957428999754278 ], [ -73.896525000068166, 40.956825000261858 ] ] ] } },
{ "type": "Feature", "properties": { "GEOID": "361190009003001", "ad_old": "092", "ad_new": "090", "type": "between districts", "P1_Total(001)": 26 }, "geometry": { "type": "Polygon", "coordinates": [ [ [ -73.866731000146288, 40.980189000165396 ], [ -73.866777000177038, 40.979908000137705 ], [ -73.866056999578504, 40.979837999681521 ], [ -73.865992000179489, 40.98019499994296 ], [ -73.865982999958661, 40.980263000096642 ], [ -73.86597700011086, 40.98031500012695 ], [ -73.865991000354597, 40.980309999982346 ], [ -73.866728999598152, 40.980202000021869 ], [ -73.866731000146288, 40.980189000165396 ] ] ] } },
{ "type": "Feature", "properties": { "GEOID": "361190118001003", "ad_old": null, "ad_new": "092", "type": "entered study area", "P1_Total(001)": 10 }, "geometry": { "type": "Polygon", "coordinates": [ [ [ -73.823473000440359, 41.148017999898634 ], [ -73.823578999847243, 41.147961000134103 ], [ -73.823463000394625, 41.14797000020701 ], [ -73.823362999937174, 41.147977999819872 ], [ -73.823219999822058, 41.147971999772111 ], [ -73.823054999965606, 41.14796299969948 ], [ -73.822871999667498, 41.147987999672722 ], [ -73.822788999826841, 41.147998999982605 ], [ -73.822647000434912, 41.148017999898634 ], [ -73.822495000098954, 41.148017000116766 ], [ -73.822331999892342, 41.148021999702202 ], [ -73.822213000066654, 41.148017000116766 ], [ -73.822171000233851, 41.148005000027887 ], [ -73.822064999928656, 41.147974999796027 ], [ -73.821950000300916, 41.147927999856179 ], [ -73.821840999622665, 41.147796999716491 ], [ -73.821767999827728, 41.147684000217069 ], [ -73.82175799978198, 41.147669000029467 ], [ -73.8217240003451, 41.147519999783086 ], [ -73.821689000185003, 41.147366000239501 ], [ -73.821644999804079, 41.147174999824287 ], [ -73.821644999804079, 41.147024000214365 ], [ -73.821618000039891, 41.146920000276282 ], [ -73.821587000077756, 41.146854000008858 ], [ -73.821563999613232, 41.146776999838423 ], [ -73.821568999636085, 41.146761000318783 ], [ -73.821591000275717, 41.146670000101551 ], [ -73.821597999948409, 41.146566000278469 ], [ -73.821611000367199, 41.146453000010538 ], [ -73.821628999910558, 41.146393000142325 ], [ -73.82164999982696, 41.146357000330376 ], [ -73.821638999956306, 41.146330000120159 ], [ -73.821622000237852, 41.146287000263534 ], [ -73.821671999568252, 41.14626200031821 ], [ -73.821642000329334, 41.146257999730757 ], [ -73.82159999959822, 41.146260999833146 ], [ -73.821531000001258, 41.146298999990393 ], [ -73.821486999620333, 41.146344999937661 ], [ -73.821474000099855, 41.14638600014284 ], [ -73.821408999802529, 41.146583000325911 ], [ -73.821399999581701, 41.147177999884725 ], [ -73.821346999878244, 41.147824999783815 ], [ -73.821346999878244, 41.14808699968961 ], [ -73.821373999642432, 41.148287999961077 ], [ -73.821443999962625, 41.148516000290421 ], [ -73.821673000291497, 41.148887000033554 ], [ -73.821830999576903, 41.148755000009977 ], [ -73.822146000119503, 41.148589000002822 ], [ -73.822372999900224, 41.148519000289447 ], [ -73.822592000183349, 41.14849300006766 ], [ -73.822731999925423, 41.148519000289447 ], [ -73.822774999583118, 41.148535000056626 ], [ -73.822896999781861, 41.148444000272058 ], [ -73.823473000440359, 41.148017999898634 ] ] ] } },
{ "type": "Feature", "properties": { "GEOID": "361190009003000", "ad_old": "092", "ad_new": "090", "type": "between districts", "P1_Total(001)": 19 }, "geometry": { "type": "Polygon", "coordinates": [ [ [ -73.865992000179489, 40.98019499994296 ], [ -73.866056999578504, 40.979837999681521 ], [ -73.86535000029707, 40.97975499988717 ], [ -73.86528499999973, 40.980187000239418 ], [ -73.865279000151958, 40.98033199980194 ], [ -73.865275999778902, 40.980417999765997 ], [ -73.865310000114093, 40.980410999710017 ], [ -73.865704000299402, 40.980351999693156 ], [ -73.86597700011086, 40.98031500012695 ], [ -73.865982999958661, 40.980263000096642 ], [ -73.865992000179489, 40.98019499994296 ] ] ] } },
{ "type": "Feature", "properties": { "GEOID": "361190008022000", "ad_old": "092", "ad_new": "090", "type": "between districts", "P1_Total(001)": 0 }, "geometry": { "type": "Polygon", "coordinates": [ [ [ -73.872540999773406, 40.959117000047954 ], [ -73.872555000017115, 40.958999999808341 ], [ -73.872346999604645, 40.958964999690565 ], [ -73.872218999558129, 40.958934000016541 ], [ -73.872151999610978, 40.958894000131146 ], [ -73.872104999755322, 40.958853000274388 ], [ -73.872071000318442, 40.958796999816634 ], [ -73.872031000135465, 40.958674999938992 ], [ -73.87200299964806, 40.958207999986406 ], [ -73.871961999640178, 40.958860999851346 ], [ -73.871881000347642, 40.959281000023189 ], [ -73.871504999705678, 40.960703000097084 ], [ -73.871384000230179, 40.96124899982545 ], [ -73.871304999689144, 40.961673999926774 ], [ -73.871212999627645, 40.962441000188903 ], [ -73.871091000327226, 40.964035000036979 ], [ -73.871067000037769, 40.964581000012203 ], [ -73.87107100023573, 40.964860999673476 ], [ -73.871097000174998, 40.965251000080613 ], [ -73.871232999719112, 40.965498999784209 ], [ -73.871320999582679, 40.965699999825695 ], [ -73.871329999803507, 40.965720000083188 ], [ -73.871453999652061, 40.966094000051022 ], [ -73.87154300023883, 40.966476999776468 ], [ -73.87229899992407, 40.966474000281401 ], [ -73.872356999650378, 40.966077000098466 ], [ -73.872411000077065, 40.965820999764681 ], [ -73.872425000320774, 40.965698000138794 ], [ -73.872435000366508, 40.965613999666878 ], [ -73.87244100021428, 40.965340000259239 ], [ -73.872431000168547, 40.964619000123157 ], [ -73.872431000168547, 40.963852999945814 ], [ -73.872453999734773, 40.963240999819135 ], [ -73.872498999940618, 40.961997000154291 ], [ -73.872534000100714, 40.960017999688169 ], [ -73.872528000252942, 40.959233000138774 ], [ -73.872540999773406, 40.959117000047954 ] ] ] } },
{ "type": "Feature", "properties": { "GEOID": "361190008022004", "ad_old": "092", "ad_new": "090", "type": "between districts", "P1_Total(001)": 422 }, "geometry": { "type": "Polygon", "coordinates": [ [ [ -73.877224999819433, 40.961825000248787 ], [ -73.877326999926694, 40.961447000198781 ], [ -73.876132999675221, 40.961149999755186 ], [ -73.8752499997684, 40.96090600033223 ], [ -73.874419999564992, 40.960664999766479 ], [ -73.874663999962465, 40.960145000113627 ], [ -73.875026000360705, 40.959427999960766 ], [ -73.875268000210042, 40.958884999933161 ], [ -73.875427000218707, 40.958579999883661 ], [ -73.875986000260454, 40.958738000143036 ], [ -73.876276999615271, 40.9588349998659 ], [ -73.876613000074244, 40.95816000000017 ], [ -73.876517999639688, 40.957931999758301 ], [ -73.876378999722505, 40.957481000144092 ], [ -73.876307999577406, 40.957283000084701 ], [ -73.876244000003311, 40.957168999904439 ], [ -73.876134000398451, 40.957061000051922 ], [ -73.876042000336938, 40.957009999984777 ], [ -73.875921999788019, 40.956984999924188 ], [ -73.875787999893731, 40.956912000317125 ], [ -73.875475999724188, 40.95666200027064 ], [ -73.875159000430102, 40.956422999780585 ], [ -73.874889999918267, 40.956190999695004 ], [ -73.874258000081582, 40.956664000231392 ], [ -73.873823999713323, 40.95700100020828 ], [ -73.873694000016982, 40.957140000011648 ], [ -73.873549000252027, 40.957348000200511 ], [ -73.872601999872785, 40.958792000076286 ], [ -73.872555000017115, 40.958999999808341 ], [ -73.872540999773406, 40.959117000047954 ], [ -73.872528000252942, 40.959233000138774 ], [ -73.872534000100714, 40.960017999688169 ], [ -73.872498999940618, 40.961997000154291 ], [ -73.872453999734773, 40.963240999819135 ], [ -73.872541999598312, 40.963189999778486 ], [ -73.872631000185095, 40.963153000083508 ], [ -73.873031000218177, 40.963083000163749 ], [ -73.873115999708673, 40.963038999866079 ], [ -73.873431000251259, 40.962829000199747 ], [ -73.87351400009193, 40.962782000069808 ], [ -73.873510999718874, 40.961935000247941 ], [ -73.873518000289891, 40.961847000127619 ], [ -73.87359299973464, 40.961555000337071 ], [ -73.873683999971249, 40.961347999747147 ], [ -73.87373500002488, 40.961286999819826 ], [ -73.873788999553227, 40.961253000147202 ], [ -73.873870999568993, 40.961236000304353 ], [ -73.873955999957801, 40.961239999948525 ], [ -73.874460999572875, 40.961382000049213 ], [ -73.87457000025114, 40.96143599985443 ], [ -73.874610000434117, 40.961473999741145 ], [ -73.874633999825235, 40.961530999869353 ], [ -73.87463300000033, 40.961551000033616 ], [ -73.874623999779502, 40.961659999906381 ], [ -73.874511999626492, 40.961917999902333 ], [ -73.874492000433335, 40.961991999978018 ], [ -73.874480999664357, 40.962158000065912 ], [ -73.874467000318973, 40.963088000257379 ], [ -73.874505999778705, 40.963160999817617 ], [ -73.874595000365488, 40.963266000223648 ], [ -73.874689999901719, 40.963343999661284 ], [ -73.87475799967379, 40.963374999977461 ], [ -73.875093000307857, 40.96346300009543 ], [ -73.87537399961694, 40.96349000016972 ], [ -73.875524000303088, 40.963504999678641 ], [ -73.875735000190275, 40.963540999978541 ], [ -73.875996000306188, 40.963628000000284 ], [ -73.876325000194157, 40.963848999781646 ], [ -73.876363999653918, 40.963142000023495 ], [ -73.876397000164175, 40.962696000178454 ], [ -73.876402000187042, 40.962275000134447 ], [ -73.876438000172058, 40.962167999714616 ], [ -73.876489000225689, 40.962070000242925 ], [ -73.876546000127092, 40.962004000129149 ], [ -73.876628000142873, 40.961942000229328 ], [ -73.876726000052145, 40.961885999678927 ], [ -73.876895000106572, 40.961839000234178 ], [ -73.877224999819433, 40.961825000248787 ] ] ] } },
{ "type": "Feature", "properties": { "GEOID": "361190009001010", "ad_old": "092", "ad_new": "090", "type": "between districts", "P1_Total(001)": 0 }, "geometry": { "type": "Polygon", "coordinates": [ [ [ -73.868502999807745, 40.976555999707202 ], [ -73.868510000378762, 40.97575300033219 ], [ -73.868492999762012, 40.975251000205134 ], [ -73.86842599981486, 40.974282999886213 ], [ -73.867982000299165, 40.97424799973475 ], [ -73.867917999826744, 40.975690999785613 ], [ -73.86788600003969, 40.976091000186933 ], [ -73.867864000298383, 40.976237999982658 ], [ -73.867841999658751, 40.976265999938903 ], [ -73.867803000199018, 40.976276999845801 ], [ -73.867686000023156, 40.976274000117996 ], [ -73.867598999984509, 40.976270999711844 ], [ -73.867482999633552, 40.976267999983769 ], [ -73.867366000356, 40.977535999944202 ], [ -73.867301999883594, 40.978788999845001 ], [ -73.867469000288168, 40.978780000325692 ], [ -73.867906000131171, 40.978765000219859 ], [ -73.86804699969818, 40.978782999939533 ], [ -73.868122999866145, 40.978575000166607 ], [ -73.868255000110636, 40.978086999742033 ], [ -73.868431999662633, 40.977220000212569 ], [ -73.868502999807745, 40.976555999707202 ] ] ] } },
{ "type": "Feature", "properties": { "GEOID": "361190009001003", "ad_old": "092", "ad_new": "090", "type": "between districts", "P1_Total(001)": 0 }, "geometry": { "type": "Polygon", "coordinates": [ [ [ -73.865935000278071, 40.978866000278806 ], [ -73.866015999570635, 40.977454999974874 ], [ -73.865907999615587, 40.977446999939012 ], [ -73.865637000352251, 40.978225000242091 ], [ -73.865529000397217, 40.9786960002317 ], [ -73.865496999711851, 40.978897000084551 ], [ -73.865935000278071, 40.978866000278806 ] ] ] } },
{ "type": "Feature", "properties": { "GEOID": "361190009001002", "ad_old": "092", "ad_new": "090", "type": "between districts", "P1_Total(001)": 29 }, "geometry": { "type": "Polygon", "coordinates": [ [ [ -73.866680000092657, 40.977010000236078 ], [ -73.866722999750365, 40.976197999733877 ], [ -73.866356000227569, 40.976138000332561 ], [ -73.86626499999096, 40.976425999945334 ], [ -73.865907999615587, 40.977446999939012 ], [ -73.866015999570635, 40.977454999974874 ], [ -73.866665999848962, 40.977495000139648 ], [ -73.866680000092657, 40.977010000236078 ] ] ] } },
{ "type": "Feature", "properties": { "GEOID": "361190008022002", "ad_old": "092", "ad_new": "090", "type": "between districts", "P1_Total(001)": 81 }, "geometry": { "type": "Polygon", "coordinates": [ [ [ -73.874431000333956, 40.963868999921772 ], [ -73.874467000318973, 40.963088000257379 ], [ -73.874377999732189, 40.962808999744404 ], [ -73.874344000295324, 40.962758000048332 ], [ -73.874211000225941, 40.962655999859557 ], [ -73.874136999707773, 40.962629000122369 ], [ -73.874068000110796, 40.962621000323722 ], [ -73.873909000102145, 40.96261899986515 ], [ -73.873695999666808, 40.962679999918123 ], [ -73.87351400009193, 40.962782000069808 ], [ -73.873471000434222, 40.963841000130877 ], [ -73.873473999908967, 40.964697999855254 ], [ -73.873473999908967, 40.964725999960883 ], [ -73.873494000000449, 40.964746999693112 ], [ -73.874416000265356, 40.964905999968543 ], [ -73.874431000333956, 40.963868999921772 ] ] ] } },
{ "type": "Feature", "properties": { "GEOID": "361190007022000", "ad_old": "090", "ad_new": "092", "type": "between districts", "P1_Total(001)": 0 }, "geometry": { "type": "Polygon", "coordinates": [ [ [ -73.90473499989379, 40.958166999703494 ], [ -73.904770000053887, 40.958073000232851 ], [ -73.897054999797604, 40.95657199994077 ], [ -73.896963999561009, 40.956643999943147 ], [ -73.89668200042702, 40.957085000109828 ], [ -73.895201999945286, 40.959006000156158 ], [ -73.894355000023467, 40.959942000251438 ], [ -73.893554999957303, 40.960904999737771 ], [ -73.892780000005473, 40.961874000184714 ], [ -73.892692000141935, 40.962009000304519 ], [ -73.892667999852492, 40.962141999675147 ], [ -73.892675000423495, 40.962173999774429 ], [ -73.892730999601682, 40.962251999824289 ], [ -73.892979000197116, 40.962405999860749 ], [ -73.893002999588248, 40.962462999862403 ], [ -73.893000999938423, 40.962519999814837 ], [ -73.892985000044902, 40.962561000107222 ], [ -73.892898000006269, 40.962628000232399 ], [ -73.892887000135602, 40.962685999931438 ], [ -73.892940999663978, 40.962793000189826 ], [ -73.892923000120618, 40.962840000311878 ], [ -73.892832999708929, 40.962943000101497 ], [ -73.89280400029493, 40.96295500007971 ], [ -73.892694999616666, 40.962949999976018 ], [ -73.892333000116736, 40.962891999830624 ], [ -73.89228600026108, 40.962916999689028 ], [ -73.892210000093101, 40.963008000070445 ], [ -73.891772000425178, 40.963919000245589 ], [ -73.89149700006557, 40.964577999752606 ], [ -73.891414000224884, 40.964855999714189 ], [ -73.891009000168935, 40.966519999985849 ], [ -73.890958000115305, 40.966844999889219 ], [ -73.890523999747032, 40.969246999707075 ], [ -73.890159999698952, 40.971186000264396 ], [ -73.890147000178487, 40.971257999924887 ], [ -73.889784999780247, 40.972473000064788 ], [ -73.889018000224354, 40.974484000299746 ], [ -73.888844000147074, 40.975018999836628 ], [ -73.888844000147074, 40.975134999783783 ], [ -73.888872999561073, 40.975222000118926 ], [ -73.889003000155739, 40.975323000177021 ], [ -73.889118999608371, 40.975482000062577 ], [ -73.889162000164404, 40.975694000218155 ], [ -73.889031999569738, 40.976119000205571 ], [ -73.888824000055592, 40.976542000131218 ], [ -73.890121000239233, 40.976319999772514 ], [ -73.897137999638289, 40.97512200028509 ], [ -73.898702999610506, 40.974812999813622 ], [ -73.898738999595523, 40.974713999744907 ], [ -73.904143000240083, 40.959802000310198 ], [ -73.90473499989379, 40.958166999703494 ] ] ] } },
{ "type": "Feature", "properties": { "GEOID": "361190008022005", "ad_old": "092", "ad_new": "090", "type": "between districts", "P1_Total(001)": 76 }, "geometry": { "type": "Polygon", "coordinates": [ [ [ -73.876276999615271, 40.9588349998659 ], [ -73.875986000260454, 40.958738000143036 ], [ -73.875427000218707, 40.958579999883661 ], [ -73.875268000210042, 40.958884999933161 ], [ -73.875026000360705, 40.959427999960766 ], [ -73.874663999962465, 40.960145000113627 ], [ -73.874419999564992, 40.960664999766479 ], [ -73.8752499997684, 40.96090600033223 ], [ -73.875562999762835, 40.96036099972585 ], [ -73.875978999689437, 40.95941999977412 ], [ -73.876276999615271, 40.9588349998659 ] ] ] } },
{ "type": "Feature", "properties": { "GEOID": "361190009003014", "ad_old": "092", "ad_new": "090", "type": "between districts", "P1_Total(001)": 35 }, "geometry": { "type": "Polygon", "coordinates": [ [ [ -73.866056999578504, 40.979837999681521 ], [ -73.866249999922346, 40.978847999903593 ], [ -73.865935000278071, 40.978866000278806 ], [ -73.865496999711851, 40.978897000084551 ], [ -73.86535000029707, 40.97975499988717 ], [ -73.866056999578504, 40.979837999681521 ] ] ] } },
{ "type": "Feature", "properties": { "GEOID": "361190008022010", "ad_old": "092", "ad_new": "090", "type": "between districts", "P1_Total(001)": 0 }, "geometry": { "type": "Polygon", "coordinates": [ [ [ -73.87200299964806, 40.958207999986406 ], [ -73.871979000256928, 40.958051999733847 ], [ -73.871857000058199, 40.957629999951379 ], [ -73.871740999707242, 40.957901000277552 ], [ -73.871633999577114, 40.95816599974593 ], [ -73.871694999676492, 40.958434999999803 ], [ -73.871714999767974, 40.958618000057903 ], [ -73.871714999767974, 40.958947999936768 ], [ -73.871684999630759, 40.959360999979047 ], [ -73.871553000284592, 40.960065999680069 ], [ -73.871258999658394, 40.961322000063028 ], [ -73.871250000335877, 40.961465999802549 ], [ -73.871164999947069, 40.962021999673361 ], [ -73.871066000212863, 40.962997999870645 ], [ -73.871019000357194, 40.963595000052308 ], [ -73.870974999976255, 40.96439199967103 ], [ -73.870968000303563, 40.964733000324586 ], [ -73.870983000372178, 40.965041999844679 ], [ -73.871097000174998, 40.965251000080613 ], [ -73.87107100023573, 40.964860999673476 ], [ -73.871067000037769, 40.964581000012203 ], [ -73.871091000327226, 40.964035000036979 ], [ -73.871212999627645, 40.962441000188903 ], [ -73.871304999689144, 40.961673999926774 ], [ -73.871384000230179, 40.96124899982545 ], [ -73.871504999705678, 40.960703000097084 ], [ -73.871881000347642, 40.959281000023189 ], [ -73.871961999640178, 40.958860999851346 ], [ -73.87200299964806, 40.958207999986406 ] ] ] } }
]
}
